OBJECT_NAME,OBJECT_ID,EPOCH,MEAN_MOTION,ECCENTRICITY,INCLINATION,RA_OF_ASC_NODE,ARG_OF_PERICENTER,MEAN_ANOMALY,EPHEMERIS_TYPE,CLASSIFICATION_TYPE,NORAD_CAT_ID,ELEMENT_SET_NO,REV_AT_EPOCH,BSTAR,MEAN_MOTION_DOT,MEAN_MOTION_DDOT
STARLINK-35854,2026-053H,2026-06-24T04:46:34.771584,15.33444801,.00015228,97.2841,50.2580,97.5410,262.6006,0,U,68214,999,1652,.63864123E-3,.20599E-3,0
STARLINK-36272,2026-053J,2026-06-24T03:47:51.076320,15.33450429,.00015646,97.2868,50.1618,99.7418,260.4002,0,U,68215,999,1651,.68986803E-3,.22266E-3,0
STARLINK-37014,2026-053K,2026-06-24T05:17:56.032224,15.33449540,.00015514,97.2869,50.2348,94.9088,265.2331,0,U,68216,999,1654,.6134972E-3,.19786E-3,0
STARLINK-37011,2026-053L,2026-06-24T05:13:59.183040,15.33450402,.00017268,97.2868,50.2376,96.8373,263.3067,0,U,68217,999,1654,.39077896E-3,.12564E-3,0
STARLINK-37108,2026-053M,2026-06-24T03:36:06.358176,15.33439141,.00017596,97.2869,50.1776,86.5471,273.5973,0,U,68218,999,1653,.46477314E-3,.14957E-3,0
STARLINK-37106,2026-053N,2026-06-24T05:06:09.333792,15.33446323,.00016747,97.2865,50.2449,92.4732,267.6702,0,U,68219,999,1654,.24619567E-3,.7882E-4,0
STARLINK-37030,2026-053P,2026-06-24T04:58:19.477632,15.33449208,.00011779,97.2846,50.2512,102.8005,257.3369,0,U,68220,999,1654,.6268741E-3,.2022E-3,0
STARLINK-37012,2026-053Q,2026-06-24T05:02:14.206560,15.33444856,.00022188,97.2859,50.2491,64.3764,295.7708,0,U,68221,999,1654,.29066132E-3,.932E-4,0
STARLINK-37110,2026-053R,2026-06-24T06:28:22.723680,15.33449352,.0001427,97.2874,50.3203,89.6825,270.4581,0,U,68222,999,1655,.57787243E-3,.1863E-3,0
STARLINK-37025,2026-053S,2026-06-24T04:50:30.115680,15.33440181,.00024557,97.2867,50.2602,68.3063,291.8441,0,U,68223,999,1654,.41306833E-3,.13283E-3,0
STARLINK-36960,2026-053U,2026-06-24T04:42:40.053888,15.33443402,.00017205,97.2869,50.2691,92.4262,267.7178,0,U,68225,999,1652,.33313109E-3,.10695E-3,0
STARLINK-37038,2026-053V,2026-06-24T04:34:48.494784,15.33456557,.00008892,97.2879,50.2750,88.0087,272.1257,0,U,68226,999,1652,.37119396E-3,.11932E-3,0
STARLINK-37083,2026-053W,2026-06-24T04:38:44.816064,15.33453498,.0001247,97.2835,50.2737,112.6744,247.4630,0,U,68227,999,1651,.61262885E-3,.1976E-3,0
STARLINK-37050,2026-053X,2026-06-24T04:30:55.301184,15.33440656,.00017579,97.2869,50.2801,94.4516,265.6927,0,U,68228,999,1652,.30161405E-3,.9673E-4,0
STARLINK-37081,2026-053Y,2026-06-24T05:21:12.665664,15.33441484,.00022938,97.2868,53.2785,81.1516,278.9986,0,U,68229,999,1674,.49112667E-3,.15813E-3,0
STARLINK-37100,2026-053Z,2026-06-24T04:27:00.110016,15.33448081,.0001079,97.2827,50.2840,107.8993,252.2368,0,U,68230,999,1654,.49403106E-3,.15909E-3,0
STARLINK-37104,2026-053AA,2026-06-24T04:23:06.558720,15.33466942,.00017162,97.2857,50.2875,91.2077,268.9362,0,U,68231,999,1654,.59855788E-3,.19312E-3,0
STARLINK-37027,2026-054A,2026-06-24T04:27:16.122528,15.34414225,.00011054,53.1575,154.5625,114.5807,245.5311,0,U,68232,999,1540,.86566454E-3,.28998E-3,0
STARLINK-37132,2026-054B,2026-06-24T06:00:02.000160,15.34355797,.00006989,53.1587,154.1052,86.4132,14.3405,0,U,68233,999,592,.36702933E-3,.12027E-3,0
STARLINK-37101,2026-054C,2026-06-24T05:44:19.490208,15.49323010,.00009557,53.1570,156.4065,85.8745,274.2373,0,U,68234,999,1538,.54945235E-3,.30243E-3,0
STARLINK-36963,2026-054D,2026-06-24T05:12:43.229664,15.34401976,.0000949,53.1574,154.7643,73.1743,286.9364,0,U,68235,999,1540,.63859752E-3,.21262E-3,0
STARLINK-37127,2026-054E,2026-06-24T05:12:24.339168,15.49322158,.00004751,53.1567,156.2659,46.0242,314.0807,0,U,68236,999,1538,.39209281E-3,.21428E-3,0
STARLINK-37095,2026-054F,2026-06-24T06:00:02.000160,15.34382409,.00013283,53.1575,154.5872,83.8204,109.5065,0,U,68237,999,588,.26880654E-3,.8711E-4,0
STARLINK-37097,2026-054G,2026-06-24T05:51:58.730400,15.34404306,.00016648,53.1583,154.2214,84.7629,275.3564,0,U,68238,999,1541,.65352242E-3,.21771E-3,0
STARLINK-37096,2026-054H,2026-06-24T04:24:14.427648,15.34403354,.00012376,53.1573,154.5522,99.3050,260.8092,0,U,68239,999,1540,.70548521E-3,.23537E-3,0
STARLINK-37092,2026-054J,2026-06-24T06:18:41.799456,15.49324131,.0001132,53.1582,155.8354,97.0156,263.0982,0,U,68240,999,1539,.28880788E-3,.15655E-3,0
STARLINK-37094,2026-054K,2026-06-23T23:14:56.438592,15.34408613,.00009671,53.1603,163.2562,36.4200,323.6868,0,U,68241,999,1526,.10711816E-2,.35999E-3,0
STARLINK-36356,2026-054L,2026-06-24T05:24:09.230976,15.30204562,.00013235,53.1589,162.0192,74.3716,285.7431,0,U,68242,999,1530,.40604425E-3,.11687E-3,0
STARLINK-36345,2026-054M,2026-06-24T05:42:53.237952,15.34396379,.00010805,53.1555,154.1727,90.1854,269.9272,0,U,68243,999,1541,.65247188E-3,.2173E-3,0
STARLINK-36310,2026-054N,2026-06-24T05:51:47.867328,15.49326939,.00008492,53.1575,155.7026,64.1326,295.9770,0,U,68244,999,1539,.11055577E-2,.61563E-3,0
