STARLINK-35854          
1 68214U 26053H   26175.19901356  .00020599  00000+0  63864-3 0  9996
2 68214  97.2841  50.2580 0001522  97.5410 262.6006 15.33444801 16529
STARLINK-36272          
1 68215U 26053J   26175.15823005  .00022266  00000+0  68987-3 0  9991
2 68215  97.2868  50.1618 0001564  99.7418 260.4002 15.33450429 16512
STARLINK-37014          
1 68216U 26053K   26175.22078741  .00019786  00000+0  61350-3 0  9999
2 68216  97.2869  50.2348 0001551  94.9088 265.2331 15.33449540 16544
STARLINK-37011          
1 68217U 26053L   26175.21804610  .00012564  00000+0  39078-3 0  9990
2 68217  97.2868  50.2376 0001726  96.8373 263.3067 15.33450402 16541
STARLINK-37108          
1 68218U 26053M   26175.15007359  .00014957  00000+0  46477-3 0  9998
2 68218  97.2869  50.1776 0001759  86.5471 273.5973 15.33439141 16532
STARLINK-37106          
1 68219U 26053N   26175.21260803  .00007882  00000+0  24620-3 0  9996
2 68219  97.2865  50.2449 0001674  92.4732 267.6702 15.33446323 16544
STARLINK-37030          
1 68220U 26053P   26175.20716988  .00020220  00000+0  62687-3 0  9993
2 68220  97.2846  50.2512 0001177 102.8005 257.3369 15.33449208 16543
STARLINK-37012          
1 68221U 26053Q   26175.20988665  .00009320  00000+0  29066-3 0  9999
2 68221  97.2859  50.2491 0002218  64.3764 295.7708 15.33444856 16542
STARLINK-37110          
1 68222U 26053R   26175.26970745  .00018630  00000+0  57787-3 0  9991
2 68222  97.2874  50.3203 0001427  89.6825 270.4581 15.33449352 16557
STARLINK-37025          
1 68223U 26053S   26175.20173745  .00013283  00000+0  41307-3 0  9991
2 68223  97.2867  50.2602 0002455  68.3063 291.8441 15.33440181 16544
STARLINK-36960          
1 68225U 26053U   26175.19629692  .00010695  00000+0  33313-3 0  9990
2 68225  97.2869  50.2691 0001720  92.4262 267.7178 15.33443402 16525
STARLINK-37038          
1 68226U 26053V   26175.19083906  .00011932  00000+0  37119-3 0  9996
2 68226  97.2879  50.2750 0000889  88.0087 272.1257 15.33456557 16527
STARLINK-37083          
1 68227U 26053W   26175.19357426  .00019760  00000+0  61263-3 0  9992
2 68227  97.2835  50.2737 0001247 112.6744 247.4630 15.33453498 16518
STARLINK-37050          
1 68228U 26053X   26175.18814006  .00009673  00000+0  30161-3 0  9999
2 68228  97.2869  50.2801 0001757  94.4516 265.6927 15.33440656 16522
STARLINK-37081          
1 68229U 26053Y   26175.22306326  .00015813  00000+0  49113-3 0  9996
2 68229  97.2868  53.2785 0002293  81.1516 278.9986 15.33441484 16741
STARLINK-37100          
1 68230U 26053Z   26175.18541794  .00015909  00000+0  49403-3 0  9991
2 68230  97.2827  50.2840 0001079 107.8993 252.2368 15.33448081 16540
STARLINK-37104          
1 68231U 26053AA  26175.18271480  .00019312  00000+0  59856-3 0  9999
2 68231  97.2857  50.2875 0001716  91.2077 268.9362 15.33466942 16543
STARLINK-37027          
1 68232U 26054A   26175.18560327  .00028998  00000+0  86566-3 0  9990
2 68232  53.1575 154.5625 0001105 114.5807 245.5311 15.34414225 15402
STARLINK-37132          
1 68233U 26054B   26175.25002315  .00012027  00000+0  36703-3 0  9991
2 68233  53.1587 154.1052 0000698  86.4132  14.3405 15.34355797  5920
STARLINK-37101          
1 68234U 26054C   26175.23911447  .00030243  00000+0  54945-3 0  9993
2 68234  53.1570 156.4065 0000955  85.8745 274.2373 15.49323010 15382
STARLINK-36963          
1 68235U 26054D   26175.21716701  .00021262  00000+0  63860-3 0  9995
2 68235  53.1574 154.7643 0000949  73.1743 286.9364 15.34401976 15406
STARLINK-37127          
1 68236U 26054E   26175.21694837  .00021428  00000+0  39209-3 0  9995
2 68236  53.1567 156.2659 0000475  46.0242 314.0807 15.49322158 15382
STARLINK-37095          
1 68237U 26054F   26175.25002315  .00008711  00000+0  26881-3 0  9996
2 68237  53.1575 154.5872 0001328  83.8204 109.5065 15.34382409  5881
STARLINK-37097          
1 68238U 26054G   26175.24442975  .00021771  00000+0  65352-3 0  9993
2 68238  53.1583 154.2214 0001664  84.7629 275.3564 15.34404306 15419
STARLINK-37096          
1 68239U 26054H   26175.18350032  .00023537  00000+0  70549-3 0  9995
2 68239  53.1573 154.5522 0001237  99.3050 260.8092 15.34403354 15406
STARLINK-37092          
1 68240U 26054J   26175.26298379  .00015655  00000+0  28881-3 0  9995
2 68240  53.1582 155.8354 0001132  97.0156 263.0982 15.49324131 15393
STARLINK-37094          
1 68241U 26054K   26174.96870878  .00035999  00000+0  10712-2 0  9998
2 68241  53.1603 163.2562 0000967  36.4200 323.6868 15.34408613 15268
STARLINK-36356          
1 68242U 26054L   26175.22510684  .00011687  00000+0  40604-3 0  9997
2 68242  53.1589 162.0192 0001323  74.3716 285.7431 15.30204562 15300
STARLINK-36345          
1 68243U 26054M   26175.23811618  .00021730  00000+0  65247-3 0  9990
2 68243  53.1555 154.1727 0001080  90.1854 269.9272 15.34396379 15410
STARLINK-36310          
1 68244U 26054N   26175.24430402  .00061563  00000+0  11056-2 0  9996
2 68244  53.1575 155.7026 0000849  64.1326 295.9770 15.49326939 15399
